{
  "type": "FeatureCollection",
  "features": [
    {
      "type": "Feature",
      "properties": {
        "norad_id": 66534,
        "name": "STARLINK-35976",
        "group": "last-30-days",
        "lat": -30.80737433626986,
        "lon": -3.7050973355780603,
        "alt_km": 415.82289801483057,
        "timestamp": "2025-12-15T19:00:44.076289+00:00",
        "meta_object_name": "STARLINK-35976",
        "meta_object_id": "2025-265U",
        "meta_epoch": "2025-12-14T10:45:35.575488",
        "meta_mean_motion": 15.50624158,
        "meta_eccentricity": 0.00022398,
        "meta_inclination": 43.0001,
        "meta_ra_of_asc_node": 43.9438,
        "meta_arg_of_pericenter": 260.0804,
        "meta_mean_anomaly": 99.9803,
        "meta_ephemeris_type": 0,
        "meta_classification_type": "U",
        "meta_norad_cat_id": 66534,
        "meta_element_set_no": 999,
        "meta_rev_at_epoch": 402,
        "meta_bstar": 0.0015599964,
        "meta_mean_motion_dot": 0.00092415,
        "meta_mean_motion_ddot": 0,
        "tle_line1": "1 66534U 25265U   25348.44832842  .00092415  00000+0  15600-2 0  9995",
        "tle_line2": "2 66534  43.0001  43.9438 0002239 260.0804  99.9803 15.50624158  4022"
      },
      "geometry": {
        "type": "Point",
        "coordinates": [
          -3.7050973355780603,
          -30.80737433626986
        ]
      }
    },
    {
      "type": "Feature",
      "properties": {
        "norad_id": 66535,
        "name": "STARLINK-35514",
        "group": "last-30-days",
        "lat": -29.59417705963292,
        "lon": -1.4773195157004009,
        "alt_km": 415.7821513518129,
        "timestamp": "2025-12-15T19:00:44.076300+00:00",
        "meta_object_name": "STARLINK-35514",
        "meta_object_id": "2025-265V",
        "meta_epoch": "2025-12-14T10:45:04.309920",
        "meta_mean_motion": 15.50620505,
        "meta_eccentricity": 0.00016527,
        "meta_inclination": 43.0008,
        "meta_ra_of_asc_node": 43.9405,
        "meta_arg_of_pericenter": 257.8771,
        "meta_mean_anomaly": 102.1904,
        "meta_ephemeris_type": 0,
        "meta_classification_type": "U",
        "meta_norad_cat_id": 66535,
        "meta_element_set_no": 999,
        "meta_rev_at_epoch": 402,
        "meta_bstar": 0.0022722023,
        "meta_mean_motion_dot": 0.0013549,
        "meta_mean_motion_ddot": 0,
        "tle_line1": "1 66535U 25265V   25348.44796655  .00135490  00000+0  22722-2 0  9991",
        "tle_line2": "2 66535  43.0008  43.9405 0001652 257.8771 102.1904 15.50620505  4020"
      },
      "geometry": {
        "type": "Point",
        "coordinates": [
          -1.4773195157004009,
          -29.59417705963292
        ]
      }
    },
    {
      "type": "Feature",
      "properties": {
        "norad_id": 66536,
        "name": "STARLINK-35640",
        "group": "last-30-days",
        "lat": -28.69446518656032,
        "lon": 0.09693039337608952,
        "alt_km": 416.2426038229887,
        "timestamp": "2025-12-15T19:00:44.076310+00:00",
        "meta_object_name": "STARLINK-35640",
        "meta_object_id": "2025-265W",
        "meta_epoch": "2025-12-14T10:44:34.667808",
        "meta_mean_motion": 15.50612598,
        "meta_eccentricity": 0.00014008,
        "meta_inclination": 43,
        "meta_ra_of_asc_node": 43.9374,
        "meta_arg_of_pericenter": 251.2373,
        "meta_mean_anomaly": 108.8335,
        "meta_ephemeris_type": 0,
        "meta_classification_type": "U",
        "meta_norad_cat_id": 66536,
        "meta_element_set_no": 999,
        "meta_rev_at_epoch": 402,
        "meta_bstar": 0.0016654559,
        "meta_mean_motion_dot": 0.00098721,
        "meta_mean_motion_ddot": 0,
        "tle_line1": "1 66536U 25265W   25348.44762347  .00098721  00000+0  16655-2 0  9996",
        "tle_line2": "2 66536  43.0000  43.9374 0001400 251.2373 108.8335 15.50612598  4029"
      },
      "geometry": {
        "type": "Point",
        "coordinates": [
          0.09693039337608952,
          -28.69446518656032
        ]
      }
    },
    {
      "type": "Feature",
      "properties": {
        "norad_id": 66537,
        "name": "STARLINK-35582",
        "group": "last-30-days",
        "lat": -27.629538265829325,
        "lon": 1.8920064477490994,
        "alt_km": 415.58405880845567,
        "timestamp": "2025-12-15T19:00:44.076321+00:00",
        "meta_object_name": "STARLINK-35582",
        "meta_object_id": "2025-265X",
        "meta_epoch": "2025-12-14T10:44:05.213184",
        "meta_mean_motion": 15.50613365,
        "meta_eccentricity": 0.00021144,
        "meta_inclination": 43.0022,
        "meta_ra_of_asc_node": 43.9345,
        "meta_arg_of_pericenter": 270.0034,
        "meta_mean_anomaly": 90.0584,
        "meta_ephemeris_type": 0,
        "meta_classification_type": "U",
        "meta_norad_cat_id": 66537,
        "meta_element_set_no": 999,
        "meta_rev_at_epoch": 402,
        "meta_bstar": 0.0016952954,
        "meta_mean_motion_dot": 0.00100525,
        "meta_mean_motion_ddot": 0,
        "tle_line1": "1 66537U 25265X   25348.44728256  .00100525  00000+0  16953-2 0  9995",
        "tle_line2": "2 66537  43.0022  43.9345 0002114 270.0034  90.0584 15.50613365  4029"
      },
      "geometry": {
        "type": "Point",
        "coordinates": [
          1.8920064477490994,
          -27.629538265829325
        ]
      }
    },
    {
      "type": "Feature",
      "properties": {
        "norad_id": 66538,
        "name": "STARLINK-35577",
        "group": "last-30-days",
        "lat": -26.588712392892692,
        "lon": 3.5722254878169784,
        "alt_km": 416.14335286393907,
        "timestamp": "2025-12-15T19:00:44.076331+00:00",
        "meta_object_name": "STARLINK-35577",
        "meta_object_id": "2025-265Y",
        "meta_epoch": "2025-12-14T10:43:35.342976",
        "meta_mean_motion": 15.50606773,
        "meta_eccentricity": 0.00012396,
        "meta_inclination": 43.0005,
        "meta_ra_of_asc_node": 43.9317,
        "meta_arg_of_pericenter": 265.8062,
        "meta_mean_anomaly": 94.2656,
        "meta_ephemeris_type": 0,
        "meta_classification_type": "U",
        "meta_norad_cat_id": 66538,
        "meta_element_set_no": 999,
        "meta_rev_at_epoch": 402,
        "meta_bstar": 0.0014913548,
        "meta_mean_motion_dot": 0.00088228,
        "meta_mean_motion_ddot": 0,
        "tle_line1": "1 66538U 25265Y   25348.44693684  .00088228  00000+0  14914-2 0  9992",
        "tle_line2": "2 66538  43.0005  43.9317 0001239 265.8062  94.2656 15.50606773  4021"
      },
      "geometry": {
        "type": "Point",
        "coordinates": [
          3.5722254878169784,
          -26.588712392892692
        ]
      }
    },
    {
      "type": "Feature",
      "properties": {
        "norad_id": 66539,
        "name": "STARLINK-35697",
        "group": "last-30-days",
        "lat": -25.537802626503353,
        "lon": 5.209384160216887,
        "alt_km": 415.70434466714687,
        "timestamp": "2025-12-15T19:00:44.076341+00:00",
        "meta_object_name": "STARLINK-35697",
        "meta_object_id": "2025-265Z",
        "meta_epoch": "2025-12-14T10:43:06.045600",
        "meta_mean_motion": 15.50602705,
        "meta_eccentricity": 0.00018669,
        "meta_inclination": 43.0006,
        "meta_ra_of_asc_node": 43.9284,
        "meta_arg_of_pericenter": 277.9467,
        "meta_mean_anomaly": 82.1181,
        "meta_ephemeris_type": 0,
        "meta_classification_type": "U",
        "meta_norad_cat_id": 66539,
        "meta_element_set_no": 999,
        "meta_rev_at_epoch": 402,
        "meta_bstar": 0.0013416759,
        "meta_mean_motion_dot": 0.00079237,
        "meta_mean_motion_ddot": 0,
        "tle_line1": "1 66539U 25265Z   25348.44659775  .00079237  00000+0  13417-2 0  9993",
        "tle_line2": "2 66539  43.0006  43.9284 0001866 277.9467  82.1181 15.50602705  4025"
      },
      "geometry": {
        "type": "Point",
        "coordinates": [
          5.209384160216887,
          -25.537802626503353
        ]
      }
    },
    {
      "type": "Feature",
      "properties": {
        "norad_id": 66540,
        "name": "STARLINK-35818",
        "group": "last-30-days",
        "lat": -24.36161586559962,
        "lon": 6.975967327334,
        "alt_km": 415.52727101601886,
        "timestamp": "2025-12-15T19:00:44.076351+00:00",
        "meta_object_name": "STARLINK-35818",
        "meta_object_id": "2025-265AA",
        "meta_epoch": "2025-12-14T10:42:36.050976",
        "meta_mean_motion": 15.5061211,
        "meta_eccentricity": 0.00021246,
        "meta_inclination": 43.0006,
        "meta_ra_of_asc_node": 43.9248,
        "meta_arg_of_pericenter": 273.7658,
        "meta_mean_anomaly": 86.296,
        "meta_ephemeris_type": 0,
        "meta_classification_type": "U",
        "meta_norad_cat_id": 66540,
        "meta_element_set_no": 999,
        "meta_rev_at_epoch": 402,
        "meta_bstar": 0.0013575355,
        "meta_mean_motion_dot": 0.00080216,
        "meta_mean_motion_ddot": 0,
        "tle_line1": "1 66540U 25265AA  25348.44625059  .00080216  00000+0  13575-2 0  9997",
        "tle_line2": "2 66540  43.0006  43.9248 0002124 273.7658  86.2960 15.50612110  4022"
      },
      "geometry": {
        "type": "Point",
        "coordinates": [
          6.975967327334,
          -24.36161586559962
        ]
      }
    }
  ]
}